{"type":"FeatureCollection","name":"prussia_1783","features":[{"type":"Feature","properties":{"NAME":"Prussia","ABBREVN":"Prussia","SUBJECTO":"Prussia","BORDERPRECISION":3,"PARTOF":"Prussia"},"geometry":{"type":"MultiPolygon","coordinates":[[[[8.16892783044074,50.797163768619363],[8.124984818219673,50.836224223926976],[8.022380361342787,50.702838429987018],[8.042901252718163,50.600233973110136],[8.00185946996741,50.589973527422444],[7.971078132904344,50.641275755860889],[7.919775904465901,50.600233973110136],[7.899255013090524,50.641275755860889],[7.85821323033977,50.641275755860889],[7.837692338964391,50.682317538611642],[7.786390110525949,50.702838429987018],[7.735087882087506,50.661796647236265],[7.704306545024441,50.579713081734759],[7.724827436399817,50.548931744671691],[7.704306545024441,50.507889961920938],[7.673525207961374,50.518150407608623],[7.663264762273686,50.466848179170185],[7.714566990712129,50.446327287794809],[7.745348327775194,50.353983276605611],[7.663264762273686,50.343722830917919],[7.736993721394716,50.140940140983211],[7.644783655656541,49.979572525941407],[7.552573589918365,49.979572525941407],[7.437311007745646,49.910414976637774],[6.999313195489314,49.656837295857791],[7.068470744792945,49.541574713685073],[7.022365711923857,49.426312131512354],[6.884050613316594,49.426312131512354],[6.954413923827392,49.20173605533008],[6.77724269351123,49.176902376130862],[6.625501665679199,49.301787935212893],[6.433043036071044,49.445331178621096],[6.3994536729729,49.604186616853518],[6.511355433074218,49.668929658845705],[6.530922445861084,49.798427186921877],[6.321478399840576,49.841613374666018],[6.136599573699218,49.981978975251955],[6.108513388243896,50.117454133943362],[6.298354181853515,50.286868654207034],[6.28142503222583,50.49760016055469],[6.154545816985351,50.66175802798633],[5.999575647917968,50.741599641755862],[6.073926481810791,50.866614900544924],[6.009666475859863,50.964496217683596],[5.927895102111084,50.98081549258594],[5.964243445006591,51.024337373689455],[6.070175680724365,51.084186159089846],[6.176207575408203,51.144050203279299],[6.089237246123535,51.198485933259768],[6.179620298949462,51.322330079988284],[6.222278151122314,51.389102540925784],[6.153822455016357,51.52067144961719],[6.1168608995354,51.639857850984377],[5.947897944060546,51.721671663240237],[5.979368242827636,51.803527437166018],[6.13267425021289,51.838435731843752],[6.211378130522949,51.879943452791018],[6.381445440856201,51.81990011783008],[6.680369410125,51.887752138093752],[6.82461646517871,51.956386171296877],[6.882234129515869,52.125732027009768],[7.067718062010986,52.21864279361133],[7.068196612074827,52.272640820202653],[7.216935374859232,52.221384391764936],[7.514488299802201,52.385551522767955],[7.524748745489891,52.488155979644837],[7.637613648054465,52.488155979644837],[7.647874093742153,52.447114196894084],[7.729957659243662,52.416332859831023],[7.791520333369794,52.447114196894084],[7.863343453183614,52.344509740017202],[7.842822561808237,52.33424929432951],[7.842822561808237,52.262426174515689],[7.842822561808237,52.231644837452627],[7.914645681622057,52.211123946077244],[7.873603898871302,52.13930082626343],[7.801780779057482,52.13930082626343],[7.801780779057482,52.087998597824985],[7.873603898871302,52.087998597824985],[7.904385235934368,52.03669636938654],[8.078812812625074,52.026435923698855],[8.18141726950196,52.057217260761917],[8.242979943628093,52.129040380575738],[8.314803063441913,52.09825904351267],[8.376365737568044,52.149561271951114],[8.417407520318799,52.118779934888046],[8.448188857381865,52.159821717638806],[8.417407520318799,52.180342609014183],[8.427667966006489,52.231644837452627],[8.468709748757242,52.27268662020338],[8.468709748757242,52.313728402954133],[8.40714707463111,52.375291077080263],[8.417407520318799,52.447114196894084],[8.468709748757242,52.467635088269461],[8.530272422883375,52.457374642581776],[8.530272422883375,52.477895533957152],[8.561053759946439,52.477895533957152],[8.561053759946439,52.467635088269461],[8.643137325447949,52.488155979644837],[8.694439553886392,52.447114196894084],[8.684179108198702,52.395811968455639],[8.684179108198702,52.354770185704886],[8.735481336637147,52.375291077080263],[8.78678356507559,52.365030631392578],[8.762928722880106,52.301799215184694],[8.770371830740594,52.242254352300804],[8.850434633404873,52.194779843108179],[8.832955570670187,52.159821717638806],[8.766262673700211,52.190603054701874],[8.714960445261768,52.170082163326498],[8.725220890949457,52.098259043512677],[8.643137325447949,52.057217260761924],[8.561053759946439,52.098259043512677],[8.499491085820306,52.036696369386547],[8.509751531507996,51.944352358197349],[8.489230640132618,51.893050129758905],[8.540532868571063,51.913571021134281],[8.581574651321816,51.862268792695843],[8.591835097009504,51.759664335818954],[8.643137325447949,51.759664335818954],[8.684179108198702,51.708362107380509],[8.735481336637145,51.749403890131269],[8.7765231193879,51.739143444443577],[8.7765231193879,51.749403890131269],[8.817564902138654,51.718622553068201],[8.848346239201721,51.749403890131269],[8.868867130577097,51.657059878942071],[9.00225292451705,51.667320324629756],[9.172884136303312,51.625355101767113],[9.161289832676221,51.54419497637749],[9.212592061114666,51.533934530689798],[9.202331615426978,51.492892747939045],[9.140768941300845,51.482632302251353],[9.079206267174714,51.410809182437539],[8.976601810297828,51.380027845374471],[8.986862255985516,51.318465171248342],[8.863736907733253,51.256902497122205],[8.832955570670187,51.30820472556065],[8.853476462045563,51.4415905195006],[8.771392896544056,51.492892747939045],[8.679048885354858,51.431330073812916],[8.720090668105613,51.349246508311403],[8.750872005168677,51.328725616936026],[8.740611559480989,51.297944279872958],[8.699569776730234,51.297944279872958],[8.648267548291791,51.328725616936026],[8.566183982790283,51.328725616936026],[8.484100417288774,51.277423388497581],[8.51488175435184,51.215860714371452],[8.576444428477972,51.215860714371452],[8.58670487416566,51.123516703182254],[8.534738734535663,51.078974297785116],[8.51488175435184,51.061954029056125],[8.51488175435184,51.041433137680748],[8.463579525913397,51.01065180061768],[8.422537743162643,51.041433137680748],[8.340454177661133,51.01065180061768],[8.340454177661133,50.959349572179235],[8.258370612159625,50.867005560990037],[8.16892783044074,50.797163768619363]]]]}},{"type":"Feature","properties":{"NAME":"Prussia","ABBREVN":"Prussia","SUBJECTO":"Prussia","BORDERPRECISION":3,"PARTOF":"Prussia"},"geometry":{"type":"MultiPolygon","coordinates":[[[[10.97269114557997,51.584342768923001],[10.952594438789966,51.631235084766345],[10.892304318419951,51.637933987029676],[10.872207611629946,51.651331791556352],[10.832014198049936,51.611138377976339],[10.691337250519904,51.617837280239677],[10.597552618833216,51.564246062132995],[10.54999041276354,51.574964305754335],[10.528553925520868,51.601759914807673],[10.571426900006211,51.623196402050347],[10.538580669553731,51.662957628387559],[10.517835681899532,51.676787620157022],[10.530042480970859,51.711619317251092],[10.535442827017564,51.722420009344503],[10.589446287484602,51.717019663297798],[10.589446287484602,51.749421739578018],[10.65425044004505,51.76022243167143],[10.665051132138458,51.727820355391202],[10.843262551679686,51.884430390745621],[10.578293274826127,52.091784615370607],[10.55317239133862,52.16714726583313],[10.578293274826127,52.175520893662295],[10.578293274826127,52.242509916295646],[10.55317239133862,52.276004427612321],[10.55317239133862,52.292751683270659],[10.502930624363609,52.351367078074837],[10.511304252192778,52.368114333733175],[10.511304252192778,52.393235217220678],[10.528051507851114,52.443476984195691],[10.569919646996958,52.443476984195691],[10.569919646996958,52.460224239854028],[10.536425135680282,52.460224239854028],[10.528051507851114,52.736553958216597],[10.55317239133862,52.80354298084994],[10.687150436605318,52.770048469533265],[10.703897692263656,52.820290236508278],[10.871370248847027,52.778422097362437],[10.896491132334534,52.761674841704099],[10.921612015822038,52.778422097362437],[10.98022741062622,52.711433074729086],[11.063963688917905,52.761674841704099],[11.080710944576243,52.744927586045762],[11.114205455892918,52.753301213874934],[11.097458200234581,52.778422097362437],[11.114205455892918,52.820290236508278],[11.147699967209592,52.811916608679113],[11.181194478526265,52.887279259141629],[11.080710944576243,52.971015537433317],[11.18685386622349,53.03865447052339],[11.219183209456638,53.03865447052339],[11.31617123915608,53.103313156989685],[11.348500582389228,53.151807171839401],[11.396994597238951,53.151807171839401],[11.461653283705244,53.087148485373113],[11.526311970171541,53.103313156989685],[11.510147298554966,53.119477828606257],[11.590970656637836,53.119477828606257],[11.639464671487556,53.151807171839401],[11.720288029570426,53.135642500222829],[11.752617372803574,53.345783231238286],[11.817276059269869,53.216465858305703],[11.86577007411959,53.248795201538847],[11.881934745736164,53.216465858305703],[11.914264088969311,53.248795201538847],[11.962758103819032,53.200301186689124],[12.092075476751623,53.200301186689124],[12.302216207767081,53.054819142139962],[12.350710222616803,53.070983813756534],[12.544686282015688,52.990160455673667],[12.787156356264294,52.893172425974221],[12.835650371114015,52.941666440823944],[12.932638400813458,52.9093370975908],[12.932638400813458,52.860843082741077],[13.078120445362622,52.828513739507926],[13.094285116979195,52.78001972465821],[13.029626430512902,52.747690381425059],[13.094285116979195,52.666867023342192],[13.255931833144935,52.618373008492469],[13.304425847994654,52.65070235172562],[13.191273146678638,52.796184396274782],[13.142779131828917,52.78001972465821],[13.142779131828917,52.877007754357649],[13.06195577374605,52.925501769207372],[13.06195577374605,52.990160455673667],[13.191273146678638,52.957831112440516],[13.272096504761507,53.022489798906811],[13.417578549310672,53.006325127290239],[13.498401907393539,53.119477828606257],[13.530731250626687,53.087148485373113],[13.611554608709557,53.281124544771991],[13.724707310025572,53.281124544771991],[13.757036653258719,53.42660658932116],[13.692377966792426,53.42660658932116],[13.773201324875295,53.475100604170883],[13.805530668108442,53.604417977103473],[13.611554608709557,53.669076663569761],[13.563060593859834,53.636747320336617],[13.530731250626687,53.636747320336617],[13.482237235776967,53.701406006802912],[13.401413877694097,53.701406006802912],[13.255931833144935,53.572088633870329],[13.207437818295212,53.620582648720045],[13.110449788595769,53.572088633870322],[13.110449788595769,53.620582648720045],[13.175108475062064,53.669076663569761],[13.142779131828917,53.782229364885779],[13.013461758896327,53.733735350036063],[12.981132415663179,53.733735350036063],[12.884144385963737,53.68524133518634],[12.77099168464772,53.701406006802912],[12.90030905758031,53.927711409434949],[13.24823396661326,53.966263791749974],[13.555248832008807,53.826711580206549],[13.667614969817382,54.084167085603518],[13.737782511321289,54.03028830142383],[13.764326128569824,53.877185426667971],[13.780499491301757,53.775176607087893],[13.850170168486816,53.72928961367969],[14.009740862456542,53.673209749177737],[14.17686370333789,53.683406434968752],[14.189576181975585,53.624793611482424],[14.280191454497558,53.61341818423633],[14.433155092803222,53.594214998201174],[14.537060770598632,53.538165651277346],[14.495303186980468,53.624793611482424],[14.565300974456054,53.693599306062502],[14.556940111724121,53.759883485750002],[14.482524904814941,53.818530641511721],[14.472936663237792,53.876777254060549],[14.467412027922851,53.910350404695315],[14.580244322320926,53.929018090959723],[14.885758432952148,53.979564271882815],[15.07968238314746,54.00251730533008],[15.311689409819824,54.071002565339846],[15.89836028536914,54.128402315095705],[16.114680323210937,54.199607454255862],[16.473248514739257,54.415034852937502],[16.9759016366875,54.549308381990237],[17.657612833586914,54.685462556794924],[18.279448542205078,54.724120698884768],[18.759530100432617,54.536414705232424],[18.362916025725585,54.668891511873049],[18.338496241179687,54.602645479158205],[18.453806910125,54.525378786042971],[18.513155970183593,54.315780244783205],[18.673077616301757,54.25514181704883],[18.96497634371875,54.227584444001955],[19.255003962126953,54.277194581941409],[19.733597788420898,54.461173616365237],[19.757716211882812,54.459174714998049],[19.317608866301757,54.271678529695315],[19.232062372771484,54.222072206453127],[19.230307612029296,54.166968904451174],[19.328099283782226,54.16145285220508],[19.456822428313476,54.216563783601565],[19.733119043914062,54.310268007234377],[19.977538141814453,54.423942171052737],[20.188645395842773,54.521976076082034],[20.326712641326171,54.56400641055469],[20.194232019988281,54.575046144441409],[20.005703959075195,54.547458253816409],[19.938118967620117,54.608172975496096],[19.881810221282226,54.525378786042971],[19.833247217742187,54.53089865298633],[19.86316970309375,54.751731477693362],[19.942570719329101,54.849856935457034],[20.127097162810546,54.845641694978518],[20.79715064486621,54.817977510408205],[20.985203775969726,54.811641298250002],[21.137343439666015,54.845458589509768],[21.191943201628906,54.959579072908205],[21.113345179167968,55.089244447664065],[21.223853144255859,55.111449800447268],[21.193121943083984,55.166350923494143],[21.162322077361328,55.221381746248049],[21.143034967986328,55.25583990664844],[21.200932535735351,55.26139410586719],[21.216296228972656,55.343665681794924],[21.018450769988281,55.634009920076174],[21.01481536349414,55.697055421785159],[20.995957407561523,56.024127565339846],[20.945448908416015,56.069957338289065],[21.275509614306223,55.861090711847424],[21.683967189178308,55.353470833438976],[22.583897003622813,55.009410861950805],[22.631629023162109,54.948661409333987],[22.793507608977539,54.902412019685549],[22.824341806975585,54.78678473086719],[22.72413161715625,54.732825838044924],[22.662463221160156,54.570945344880862],[22.670172724333984,54.493861757234377],[22.699036631194335,54.414901338533205],[22.739686595335002,53.949893139846267],[22.806646560031201,53.807603214866845],[21.116757267450314,53.268784513557499],[20.702007162232004,53.32062827670979],[20.477350855238758,53.130534478484734],[20.097163258788644,53.182378241637018],[20.010756986868163,53.044128206564253],[19.578725627265761,53.078690715332442],[19.49231935534528,53.165096987252923],[19.423194337808894,53.113253224100639],[19.284944302736125,53.165096987252923],[18.991162978206493,53.130534478484734],[19.221068620672085,52.93357742632859],[19.221068620672085,52.598652118624358],[18.88614331296785,52.514920791698302],[18.718680659115734,52.514920791698302],[18.54942313992898,52.947467785175569],[18.467486678337561,53.156860964798078],[18.188382255250698,53.184771407106766],[18.104650928324642,52.766114772476477],[17.881367389855154,52.794025214785158],[17.713904736003034,52.93357742632859],[16.96032279366851,52.877756541711214],[16.792860139816394,52.73820433016779],[15.843905101321067,52.710293887859102],[15.815994659012382,52.57074167631567],[15.760173774395009,52.57074167631567],[15.764534781005738,52.265471213564417],[15.229875370529975,52.20790592630275],[15.200188659714534,51.985255595186949],[14.526129794717798,51.886117998885204],[14.509253713321849,51.962060365166984],[14.551443916811722,52.274267870992048],[14.323616817966402,52.274267870992048],[14.323616817966402,52.333334155877871],[14.137979922610954,52.274267870992048],[14.053599515631205,52.324896115179904],[14.011409312141332,52.147697260522428],[13.859524579577783,52.147697260522428],[13.800458294691961,52.06331685354268],[13.602839381545387,52.111244924707179],[13.386825539677231,52.051841118193437],[13.397626231770637,52.251653921921481],[13.246416542462928,52.230052537734664],[13.106007545248627,52.240853229828076],[13.141109794552202,52.046440772146731],[12.579473805694995,52.095043886567069],[12.363459963826839,52.062641810286841],[12.18524854428561,52.073442502380253],[12.106943526608402,52.138246654940701],[12.139345602888627,52.186849769361039],[12.106943526608402,52.20305080750115],[11.939532799160581,52.138246654940701],[11.815324840086392,52.154447693080812],[11.833210715330727,52.074784425439859],[11.792273622098051,52.056176655788647],[11.688070112051243,51.951973145741832],[11.702956327772215,51.94453003788135],[11.676905450260513,51.91847916036965],[11.587588155934677,51.91847916036965],[11.498270861608841,51.829161866043812],[11.416396675143492,51.832883419974053],[11.390345797631788,51.769617003159922],[11.282420733654737,51.762173895299433],[11.256369856143035,51.795667880671623],[11.181938777538171,51.777060111020404],[11.167052561817199,51.803110988532104],[11.066570605700633,51.747287679578463],[11.126115468584523,51.579817752717517],[11.059127497840146,51.557488429136058],[10.97269114557997,51.584342768923001]]],[[[14.069946322051269,53.917769990876955],[14.17416766604541,53.906760774568362],[14.205406221953613,53.813205324128909],[14.145425829497558,53.826453767732424],[14.068350824919921,53.843474946931643],[14.028717074004394,53.865481935457034],[13.827770266143066,53.829719148591799],[13.777402910796386,53.94862326236133],[13.778410944548828,54.044406496003909],[14.069946322051269,53.917769990876955]]]]}}]}